LEMUR-2-RUAIRI-EILIDH   
1 47511U 21006DC  21068.14974198  .00001450  00000-0  88268-4 0  9993
2 47511  97.5006 131.0517 0010225  94.6814 265.5585 15.11938182  6884
FLOCK 4S-38             
1 47512U 21006DD  21068.48203017  .00001996  00000-0  12030-3 0  9994
2 47512  97.5097 131.4345 0010526  95.7587 264.4843 15.11873151  6936
FLOCK 4S-28             
1 47514U 21006DE  21067.82065127  .00000842  00000-0  52949-4 0  9994
2 47514  97.4989 130.7171 0010372  97.8055 262.4353 15.11854649  7798
FLOCK 4S-5              
1 47515U 21006DF  21068.41633019  .00002017  00000-0  12157-3 0  9994
2 47515  97.4984 131.3015 0010829  97.5429 262.7032 15.11861809  6924
FLOCK 4S-16             
1 47516U 21006DG  21067.75557853  .00000819  00000-0  51680-4 0  9995
2 47516  97.5107 130.7184 0010446  99.8045 260.4365 15.11812331  7782
ASTROCAST-0105          
1 47517U 21006DH  21068.41907102  .00000477  00000-0  31730-4 0  9990
2 47517  97.4985 131.2938 0009645  95.7048 264.5282 15.11738637  6920
FLOCK 4S-6              
1 47518U 21006DJ  21068.48407368  .00000780  00000-0  49363-4 0  9995
2 47518  97.4992 131.3694 0010646  98.5771 261.6666 15.11802650  7906
ASTROCAST-0104          
1 47519U 21006DK  21068.41894935  .00000687  00000-0  43986-4 0  9990
2 47519  97.5030 131.3222 0011570  81.4535 278.8006 15.11751952  6921
FLOCK 4S-29             
1 47520U 21006DL  21067.75649164  .00000824  00000-0  51999-4 0  9996
2 47520  97.5004 130.6561 0010125  99.0381 261.1995 15.11782874  6829
FLOCK 4S-15             
1 47521U 21006DM  21068.48498393  .00000829  00000-0  52300-4 0  9996
2 47521  97.5093 131.4283 0010421  98.8115 261.4295 15.11771770  7908
FLOCK 4S-37             
1 47522U 21006DN  21067.88944261  .00000696  00000-0  44504-4 0  9999
2 47522  97.5092 130.8397 0010271  99.7023 260.5368 15.11759852  7816
LEMUR-2-JENNIFERSONG    
1 47525U 21006DR  21067.79700117  .00001660  00000-0  98320-4 0  9999
2 47525  97.5024 130.7671 0013518  92.0172 268.2607 15.12708776  6838
FLOCK 4S-7              
1 47527U 21006DT  21068.48531697  .00000889  00000-0  55833-4 0  9997
2 47527  97.4997 131.3691 0010568  99.5505 260.6920 15.11762731  7892
LEMUR-2-CHANTAL         
1 47529U 21006DV  21068.41870020  .00001242  00000-0  76490-4 0  9994
2 47529  97.5016 131.3131 0009592  94.4112 265.8215 15.11788417  7881
FLOCK 4S-36             
1 47530U 21006DW  21067.89036651  .00001909  00000-0  11567-3 0  9994
2 47530  97.5083 130.8352 0009916  98.8456 261.3898 15.11733295  7809
KEPLER-9 (ARTEMIS)      
1 47531U 21006DX  21068.41984367  .00001302  00000-0  80029-4 0  9997
2 47531  97.5098 131.3633 0010614 101.0414 259.2011 15.11747448  7888
YAOGAN-31 D             
1 47532U 21007A   21068.31242994 -.00000031  00000-0  10000-3 0  9991
2 47532  63.4081  48.7494 0009541 285.5921  74.4047 13.45207586  5251
YAOGAN-31 E             
1 47533U 21007B   21068.31244512 -.00000031  00000-0  10000-3 0  9990
2 47533  63.4071  47.8593 0009583 287.7826  72.2143 13.45207619  5266
YAOGAN-31 F             
1 47536U 21007E   21068.31225074 -.00000031  00000-0  10000-3 0  9995
2 47536  63.4073  47.8584 0009528 286.3067  73.6906 13.45208020  5272
LEMUR-2-NOOBNOOB        
1 47538U 21006DY  21067.40227263  .00001537  00000-0  91545-4 0  9992
2 47538  97.5078 130.4098 0013170  93.0498 267.2240 15.12630110  6778
FLOCK 4S-24             
1 47539U 21006DZ  21067.59946677  .00001185  00000-0  71352-4 0  9993
2 47539  97.5025 130.5722 0013038  86.8652 273.4071 15.12651221  6802
FLOCK 4S-20             
1 47540U 21006EA  21068.46111758  .00001182  00000-0  71341-4 0  9991
2 47540  97.5076 131.4495 0012972  85.4323 274.8389 15.12591999  6007
HIBER-4                 
1 47541U 21006EB  21067.60129503  .00001128  00000-0  68202-4 0  9996
2 47541  97.4998 130.5538 0013217  89.8434 270.4311 15.12589346  6800
FLOCK 4S-25             
1 47542U 21006EC  21068.39627373  .00002673  00000-0  15677-3 0  9995
2 47542  97.5003 131.3377 0012890  86.7857 273.4849 15.12549120  5994
FLOCK 4S-1              
1 47543U 21006ED  21068.13174028  .00001058  00000-0  64318-4 0  9995
2 47543  97.5000 131.0778 0012428  85.3943 274.8707 15.12538118  5951
FLOCK 4S-30             
1 47544U 21006EE  21068.41890602  .00002102  00000-0  12683-3 0  9998
2 47544  97.5008 131.3104 0010132  97.4928 262.7454 15.11770156  7881
FLOCK 4S-23             
1 47545U 21006EF  21068.45941884  .00000972  00000-0  59191-4 0  9991
2 47545  97.5032 131.4243 0013199  85.1557 275.1181 15.12644902  7900
COSMOS 2549             
1 47546U 21008A   21068.37781172 -.00000056  00000-0  13922-4 0  9993
2 47546  67.1497 346.4700 0006741 262.7782  97.2538 13.96675591  4873
STARLINK-1782           
1 47548U 21009A   21068.25001157  .00027624  00000-0  30672-3 0  9990
2 47548  53.0535 322.1933 0001703  33.8269  60.3088 15.62734518  5806
STARLINK-1806           
1 47549U 21009B   21068.58335648  .00090911  00000-0  98869-3 0  9993
2 47549  53.0533 320.5581 0001436  54.5684 116.6172 15.62725478  5860
STARLINK-1909           
1 47550U 21009C   21068.58335648 -.00021115  00000-0 -22500-3 0  9996
2 47550  53.0529 320.5345 0001348  53.4199 128.5363 15.62794572  5861
STARLINK-1938           
1 47551U 21009D   21068.58335648  .00077607  00000-0  84531-3 0  9994
2 47551  53.0535 320.5976 0001621  47.6754 112.6602 15.62753399  5867
STARLINK-1940           
1 47552U 21009E   21068.25001157 -.00031789  00000-0 -34252-3 0  9992
2 47552  53.0534 322.1956 0001873  33.9809  58.8644 15.62764270  5802
STARLINK-1951           
1 47553U 21009F   21068.25001157  .00050775  00000-0  55702-3 0  9990
2 47553  53.0533 322.1891 0001501  50.5923  44.6615 15.62747360  5802
STARLINK-1953           
1 47554U 21009G   21068.41948566 -.00402329  00000-0 -73735-2 0  9996
2 47554  53.0530 321.9930 0003230 268.4353  91.6285 15.50163793  5825
STARLINK-1954           
1 47555U 21009H   21068.58335648  .00072923  00000-0  79574-3 0  9995
2 47555  53.0526 320.5755 0001519  53.8154 109.1113 15.62732866  5869
STARLINK-1955           
1 47556U 21009J   21068.58335648 -.00781162  00000-0 -20678-1 0  9999
2 47556  53.0546 321.3686 0001515  52.9116  27.0556 15.40477619  5854
STARLINK-1956           
1 47557U 21009K   21068.25001157 -.01031510  00000-0 -24002-1 0  9990
2 47557  53.0540 322.8475 0001389  58.7065 122.8856 15.44610313  5803
STARLINK-1957           
1 47558U 21009L   21068.25001157 -.00032783  00000-0 -35350-3 0  9993
2 47558  53.0534 322.1851 0001672  41.3601  58.4794 15.62762067  5806
STARLINK-1958           
1 47559U 21009M   21068.25001157  .00082641  00000-0  90171-3 0  9992
2 47559  53.0534 322.1649 0001703  40.7564  66.6849 15.62681971  5804
STARLINK-1959           
1 47560U 21009N   21068.58335648  .00075124  00000-0  83846-3 0  9994
2 47560  53.0507 320.5173 0001451  67.9772 125.9448 15.62140032  5860
STARLINK-1960           
1 47561U 21009P   21068.25001157  .00049063  00000-0  53869-3 0  9999
2 47561  53.0533 322.2068 0001511  39.9032  48.4783 15.62740694  5802
STARLINK-1961           
1 47562U 21009Q   21068.25001157 -.00034010  00000-0 -36700-3 0  9993
2 47562  53.0533 322.2129 0001887  34.9527  50.8958 15.62761597  5807
STARLINK-1962           
1 47563U 21009R   21068.58335648  .00107255  00000-0  11659-2 0  9990
2 47563  53.0535 320.5956 0001705  37.9087 120.5681 15.62662308  5866
STARLINK-1963           
1 47564U 21009S   21068.25001157 -.00071141  00000-0 -77661-3 0  9992
2 47564  53.0532 322.1992 0001830  34.3700  57.1626 15.62794880  5803
STARLINK-1964           
1 47565U 21009T   21068.25001157  .00005695  00000-0  68030-4 0  9993
2 47565  53.0534 322.1954 0001892  36.9410  55.2781 15.62740711  5803
STARLINK-1965           
1 47566U 21009U   21068.25001157  .00029533  00000-0  32740-3 0  9999
2 47566  53.0535 322.1738 0001729  34.8004  71.4125 15.62737075  5801
STARLINK-1966           
1 47567U 21009V   21068.58335648 -.00938393  00000-0 -25605-1 0  9996
2 47567  53.0524 321.4389 0001268  62.4134 335.5589 15.39621938  5849
STARLINK-1967           
1 47568U 21009W   21068.58335648 -.00941335  00000-0 -23842-1 0  9998
2 47568  53.0534 321.5029 0001503  62.8542  58.2360 15.41859970  5851
STARLINK-1968           
1 47569U 21009X   21068.25001157  .00004337  00000-0  84455-4 0  9998
2 47569  53.0539 322.9394 0004137 204.7946 268.2675 15.49844117  5800
STARLINK-1969           
1 47570U 21009Y   21068.25001157  .00014431  00000-0  16295-3 0  9992
2 47570  53.0533 322.1633 0001540  45.3764  62.6565 15.62786158  5805
STARLINK-1970           
1 47571U 21009Z   21068.25001157  .00037164  00000-0  40977-3 0  9995
2 47571  53.0534 322.1965 0001658  44.3129  49.1098 15.62758549  5803
STARLINK-1971           
1 47572U 21009AA  21068.25001157  .00007353  00000-0  86093-4 0  9993
2 47572  53.0535 322.1917 0001830  32.7451  63.9183 15.62747457  5808
STARLINK-1975           
1 47573U 21009AB  21068.58335648  .00075929  00000-0  82800-3 0  9990
2 47573  53.0532 320.5577 0001607  37.8847 139.0589 15.62732718  5862
STARLINK-1976           
1 47574U 21009AC  21068.25001157 -.00924807  00000-0 -24812-1 0  9997
2 47574  53.0524 323.0423 0001135  69.5637 270.8715 15.40092356  5797
STARLINK-1977           
1 47575U 21009AD  21068.25001157 -.00929580  00000-0 -24477-1 0  9998
2 47575  53.0529 322.9791 0001154  66.5569 298.9726 15.40668913  5792
STARLINK-1978           
1 47576U 21009AE  21068.58335648  .00091470  00000-0  99492-3 0  9997
2 47576  53.0534 320.5307 0001284  62.8746 120.3700 15.62718990  5869
STARLINK-1979           
1 47577U 21009AF  21068.58335648  .00077133  00000-0  84048-3 0  9999
2 47577  53.0530 320.5685 0001759  44.9256 121.7512 15.62745818  5864
STARLINK-1980           
1 47578U 21009AG  21068.58335648  .00030456  00000-0  33756-3 0  9997
2 47578  53.0542 320.5727 0001595  46.3738 119.7525 15.62725601  5863
